[{"OBJECT_NAME":"STARLINK-31920","OBJECT_ID":"2024-100Y","EPOCH":"2026-03-09T22:00:01.999584","MEAN_MOTION":15.33615653,"ECCENTRICITY":0.00055131,"INCLINATION":42.9978,"RA_OF_ASC_NODE":90.9988,"ARG_OF_PERICENTER":118.6152,"MEAN_ANOMALY":56.7253,"EPHEMERIS_TYPE":0,"CLASSIFICATION_TYPE":"U","NORAD_CAT_ID":59907,"ELEMENT_SET_NO":999,"REV_AT_EPOCH":580,"BSTAR":0.0037091852,"MEAN_MOTION_DOT":0.00124969,"MEAN_MOTION_DDOT":0},{"OBJECT_NAME":"OBJECT R","OBJECT_ID":"2018-111R","EPOCH":"2026-03-09T23:55:12.472032","MEAN_MOTION":15.36792156,"ECCENTRICITY":0.00179753,"INCLINATION":97.014,"RA_OF_ASC_NODE":269.2496,"ARG_OF_PERICENTER":268.8687,"MEAN_ANOMALY":91.0499,"EPHEMERIS_TYPE":0,"CLASSIFICATION_TYPE":"U","NORAD_CAT_ID":43891,"ELEMENT_SET_NO":999,"REV_AT_EPOCH":40119,"BSTAR":0.00024292589,"MEAN_MOTION_DOT":8.703e-5,"MEAN_MOTION_DDOT":0}]
